*******************************************************************************
Ephemeris / WWW_USER Mon Mar 24 11:05:44 2025 Pasadena, USA      / Horizons    
*******************************************************************************
Target body name: (2018 VN1)                      {source: JPL#9}
Center body name: Earth (399)                     {source: DE441}
Center-site name: Mauna Kea
*******************************************************************************
Start time      : A.D. 2018-Aug-09 05:04:00.0000 UT      
Stop  time      : A.D. 2018-Aug-09 15:50:00.0000 UT      
Step-size       : 1 minutes
*******************************************************************************
Target pole/equ : undefined
Target radii    : undefined                                                    
Center geodetic : 204.5278, 19.8260847, 4.21024   {E-lon(deg),Lat(deg),Alt(km)}
Center cylindric: 204.5278, 6006.35451, 2151.0229 {E-lon(deg),Dxy(km),Dz(km)}
Center pole/equ : ITRF93                          {East-longitude positive}
Center radii    : 6378.137, 6378.137, 6356.752 km {Equator_a, b, pole_c}       
Target primary  : Sun
Vis. interferer : MOON (R_eq= 1737.400) km        {source: DE441}
Rel. light bend : Sun                             {source: DE441}
Rel. lght bnd GM: 1.3271E+11 km^3/s^2                                          
Small-body perts: Yes                             {source: SB441-N16}
Atmos refraction: NO (AIRLESS)
RA format       : HMS
Time format     : CAL 
Calendar mode   : Mixed Julian/Gregorian
RTS-only print  : NO       
EOP file        : eop.250321.p250617                                           
EOP coverage    : DATA-BASED 1962-JAN-20 TO 2025-MAR-21. PREDICTS-> 2025-JUN-16
Units conversion: 1 au= 149597870.700 km, c= 299792.458 km/s, 1 day= 86400.0 s 
Table cut-offs 1: Elevation (-90.0deg=NO ),Airmass (>38.000=NO), Daylight (YES)
Table cut-offs 2: Solar elongation (  0.0,180.0=NO ),Local Hour Angle( 0.0=NO )
Table cut-offs 3: RA/DEC angular rate (     0.0=NO )                           
*******************************************************************************
Initial IAU76/J2000 heliocentric ecliptic osculating elements (au, days, deg.):
  EPOCH=  2458428.5 ! 2018-Nov-06.00 (TDB)         Residual RMS= .27219        
   EC= .3884608603153671   QR= 1.011903292497374   TP= 2458433.1511739166      
   OM= 228.4137592171332   W=  180.2469578564258   IN= 3.355185598403424       
  Equivalent ICRF heliocentric cartesian coordinates (au, au/d):
   X= 7.364971791856070E-01  Y= 6.361813492829538E-01  Z= 2.815132693616627E-01
  VX=-1.417073247356795E-02 VY= 1.354428742085641E-02 VZ= 4.590405825264917E-03
Asteroid physical parameters (km, seconds, rotational period in hours):        
   GM= n.a.                RAD= n.a.               ROTPER= n.a.                
   H= 26.2                 G= .150                 B-V= n.a.                   
                           ALBEDO= n.a.            STYP= n.a.                  
*******************************************************************************
 Date__(UT)__HR:MN     R.A._________(ICRF)_________DEC
******************************************************
$$SOE
 2018-Aug-09 05:04 C   22 33 57.434244 +03 52 00.01847
 2018-Aug-09 05:05 C   22 33 57.436685 +03 52 00.52055
 2018-Aug-09 05:06 C   22 33 57.439098 +03 52 01.02264
 2018-Aug-09 05:07 C   22 33 57.441482 +03 52 01.52474
 2018-Aug-09 05:08 C   22 33 57.443838 +03 52 02.02684
 2018-Aug-09 05:09 C   22 33 57.446166 +03 52 02.52894
 2018-Aug-09 05:10 C   22 33 57.448466 +03 52 03.03105
 2018-Aug-09 05:11 C   22 33 57.450737 +03 52 03.53316
 2018-Aug-09 05:12 C   22 33 57.452980 +03 52 04.03528
 2018-Aug-09 05:13 C   22 33 57.455195 +03 52 04.53740
 2018-Aug-09 05:14 C   22 33 57.457381 +03 52 05.03953
 2018-Aug-09 05:15 C   22 33 57.459538 +03 52 05.54165
 2018-Aug-09 05:16 C   22 33 57.461667 +03 52 06.04378
 2018-Aug-09 05:17 C   22 33 57.463768 +03 52 06.54592
 2018-Aug-09 05:18 N   22 33 57.465840 +03 52 07.04806
 2018-Aug-09 05:19 N   22 33 57.467884 +03 52 07.55020
 2018-Aug-09 05:20 N   22 33 57.469899 +03 52 08.05234
 2018-Aug-09 05:21 N   22 33 57.471886 +03 52 08.55449
 2018-Aug-09 05:22 N   22 33 57.473844 +03 52 09.05664
 2018-Aug-09 05:23 N   22 33 57.475773 +03 52 09.55879
 2018-Aug-09 05:24 N   22 33 57.477674 +03 52 10.06094
 2018-Aug-09 05:25 N   22 33 57.479547 +03 52 10.56310
 2018-Aug-09 05:26 N   22 33 57.481390 +03 52 11.06526
 2018-Aug-09 05:27 N   22 33 57.483206 +03 52 11.56742
 2018-Aug-09 05:28 N   22 33 57.484992 +03 52 12.06958
 2018-Aug-09 05:29 N   22 33 57.486750 +03 52 12.57175
 2018-Aug-09 05:30 Nr  22 33 57.488479 +03 52 13.07391
 2018-Aug-09 05:31 N   22 33 57.490180 +03 52 13.57608
 2018-Aug-09 05:32 N   22 33 57.491852 +03 52 14.07825
 2018-Aug-09 05:33 N   22 33 57.493495 +03 52 14.58042
 2018-Aug-09 05:34 N   22 33 57.495109 +03 52 15.08259
 2018-Aug-09 05:35 N   22 33 57.496695 +03 52 15.58477
 2018-Aug-09 05:36 N   22 33 57.498252 +03 52 16.08694
 2018-Aug-09 05:37 N   22 33 57.499781 +03 52 16.58912
 2018-Aug-09 05:38 N   22 33 57.501280 +03 52 17.09129
 2018-Aug-09 05:39 N   22 33 57.502751 +03 52 17.59347
 2018-Aug-09 05:40 N   22 33 57.504194 +03 52 18.09564
 2018-Aug-09 05:41 N   22 33 57.505607 +03 52 18.59782
 2018-Aug-09 05:42 N   22 33 57.506992 +03 52 19.10000
 2018-Aug-09 05:43 N   22 33 57.508348 +03 52 19.60218
 2018-Aug-09 05:44 N   22 33 57.509675 +03 52 20.10435
 2018-Aug-09 05:45 N   22 33 57.510974 +03 52 20.60653
 2018-Aug-09 05:46 A   22 33 57.512244 +03 52 21.10871
 2018-Aug-09 05:47 A   22 33 57.513485 +03 52 21.61088
 2018-Aug-09 05:48 A   22 33 57.514697 +03 52 22.11306
 2018-Aug-09 05:49 A   22 33 57.515881 +03 52 22.61523
 2018-Aug-09 05:50 A   22 33 57.517036 +03 52 23.11741
 2018-Aug-09 05:51 A   22 33 57.518162 +03 52 23.61958
 2018-Aug-09 05:52 A   22 33 57.519259 +03 52 24.12175
 2018-Aug-09 05:53 A   22 33 57.520328 +03 52 24.62392
 2018-Aug-09 05:54 A   22 33 57.521367 +03 52 25.12609
 2018-Aug-09 05:55 A   22 33 57.522378 +03 52 25.62826
 2018-Aug-09 05:56 A   22 33 57.523361 +03 52 26.13043
 2018-Aug-09 05:57 A   22 33 57.524314 +03 52 26.63259
 2018-Aug-09 05:58 A   22 33 57.525239 +03 52 27.13476
 2018-Aug-09 05:59 A   22 33 57.526136 +03 52 27.63692
 2018-Aug-09 06:00 A   22 33 57.527003 +03 52 28.13908
 2018-Aug-09 06:01 A   22 33 57.527842 +03 52 28.64124
 2018-Aug-09 06:02 A   22 33 57.528652 +03 52 29.14339
 2018-Aug-09 06:03 A   22 33 57.529433 +03 52 29.64554
 2018-Aug-09 06:04 A   22 33 57.530186 +03 52 30.14769
 2018-Aug-09 06:05 A   22 33 57.530910 +03 52 30.64984
 2018-Aug-09 06:06 A   22 33 57.531605 +03 52 31.15198
 2018-Aug-09 06:07 A   22 33 57.532272 +03 52 31.65412
 2018-Aug-09 06:08 A   22 33 57.532910 +03 52 32.15626
 2018-Aug-09 06:09 A   22 33 57.533519 +03 52 32.65840
 2018-Aug-09 06:10 A   22 33 57.534100 +03 52 33.16053
 2018-Aug-09 06:11 A   22 33 57.534652 +03 52 33.66266
 2018-Aug-09 06:12 A   22 33 57.535175 +03 52 34.16478
 2018-Aug-09 06:13     22 33 57.535670 +03 52 34.66690
 2018-Aug-09 06:14     22 33 57.536136 +03 52 35.16902
 2018-Aug-09 06:15     22 33 57.536574 +03 52 35.67113
 2018-Aug-09 06:16     22 33 57.536983 +03 52 36.17324
 2018-Aug-09 06:17     22 33 57.537364 +03 52 36.67535
 2018-Aug-09 06:18     22 33 57.537716 +03 52 37.17745
 2018-Aug-09 06:19     22 33 57.538039 +03 52 37.67954
 2018-Aug-09 06:20     22 33 57.538334 +03 52 38.18163
 2018-Aug-09 06:21     22 33 57.538601 +03 52 38.68372
 2018-Aug-09 06:22     22 33 57.538839 +03 52 39.18580
 2018-Aug-09 06:23     22 33 57.539049 +03 52 39.68788
 2018-Aug-09 06:24     22 33 57.539230 +03 52 40.18995
 2018-Aug-09 06:25     22 33 57.539383 +03 52 40.69202
 2018-Aug-09 06:26     22 33 57.539507 +03 52 41.19408
 2018-Aug-09 06:27     22 33 57.539603 +03 52 41.69613
 2018-Aug-09 06:28     22 33 57.539671 +03 52 42.19819
 2018-Aug-09 06:29     22 33 57.539710 +03 52 42.70023
 2018-Aug-09 06:30     22 33 57.539721 +03 52 43.20227
 2018-Aug-09 06:31     22 33 57.539704 +03 52 43.70430
 2018-Aug-09 06:32     22 33 57.539658 +03 52 44.20633
 2018-Aug-09 06:33     22 33 57.539584 +03 52 44.70835
 2018-Aug-09 06:34     22 33 57.539483 +03 52 45.21036
 2018-Aug-09 06:35     22 33 57.539352 +03 52 45.71237
 2018-Aug-09 06:36     22 33 57.539194 +03 52 46.21437
 2018-Aug-09 06:37     22 33 57.539007 +03 52 46.71636
 2018-Aug-09 06:38     22 33 57.538793 +03 52 47.21835
 2018-Aug-09 06:39     22 33 57.538550 +03 52 47.72033
 2018-Aug-09 06:40     22 33 57.538279 +03 52 48.22230
 2018-Aug-09 06:41     22 33 57.537980 +03 52 48.72427
 2018-Aug-09 06:42     22 33 57.537654 +03 52 49.22623
 2018-Aug-09 06:43     22 33 57.537299 +03 52 49.72818
 2018-Aug-09 06:44     22 33 57.536916 +03 52 50.23012
 2018-Aug-09 06:45     22 33 57.536505 +03 52 50.73206
 2018-Aug-09 06:46     22 33 57.536067 +03 52 51.23399
 2018-Aug-09 06:47     22 33 57.535600 +03 52 51.73591
 2018-Aug-09 06:48     22 33 57.535106 +03 52 52.23782
 2018-Aug-09 06:49     22 33 57.534584 +03 52 52.73972
 2018-Aug-09 06:50     22 33 57.534034 +03 52 53.24162
 2018-Aug-09 06:51     22 33 57.533456 +03 52 53.74351
 2018-Aug-09 06:52     22 33 57.532851 +03 52 54.24539
 2018-Aug-09 06:53     22 33 57.532218 +03 52 54.74725
 2018-Aug-09 06:54     22 33 57.531557 +03 52 55.24912
 2018-Aug-09 06:55     22 33 57.530869 +03 52 55.75097
 2018-Aug-09 06:56     22 33 57.530153 +03 52 56.25281
 2018-Aug-09 06:57     22 33 57.529409 +03 52 56.75464
 2018-Aug-09 06:58     22 33 57.528639 +03 52 57.25647
 2018-Aug-09 06:59     22 33 57.527840 +03 52 57.75828
 2018-Aug-09 07:00     22 33 57.527014 +03 52 58.26009
 2018-Aug-09 07:01     22 33 57.526161 +03 52 58.76189
 2018-Aug-09 07:02     22 33 57.525281 +03 52 59.26367
 2018-Aug-09 07:03     22 33 57.524373 +03 52 59.76545
 2018-Aug-09 07:04     22 33 57.523438 +03 53 00.26721
 2018-Aug-09 07:05     22 33 57.522475 +03 53 00.76897
 2018-Aug-09 07:06     22 33 57.521486 +03 53 01.27071
